[{"CCSDS_OMM_VERS":"3.0","COMMENT":"GENERATED VIA SPACE-TRACK.ORG API","CREATION_DATE":"2026-05-19T22:46:47","ORIGINATOR":"18 SPCS","OBJECT_NAME":"NAVSTAR 83 (USA 440)","OBJECT_ID":"2024-242A","CENTER_NAME":"EARTH","REF_FRAME":"TEME","TIME_SYSTEM":"UTC","MEAN_ELEMENT_THEORY":"SGP4","EPOCH":"2026-05-19T16:11:02.790240","MEAN_MOTION":"2.00570769","ECCENTRICITY":"0.00172770","INCLINATION":"54.8610","RA_OF_ASC_NODE":"335.3368","ARG_OF_PERICENTER":"3.4958","MEAN_ANOMALY":"177.0470","EPHEMERIS_TYPE":"0","CLASSIFICATION_TYPE":"U","NORAD_CAT_ID":"62339","ELEMENT_SET_NO":"999","REV_AT_EPOCH":"1068","BSTAR":"0.00000000000000","MEAN_MOTION_DOT":"-0.00000078","MEAN_MOTION_DDOT":"0.0000000000000","SEMIMAJOR_AXIS":"26559.715","PERIOD":"717.951","APOAPSIS":"20227.467","PERIAPSIS":"20135.693","OBJECT_TYPE":"PAYLOAD","RCS_SIZE":"LARGE","COUNTRY_CODE":"US","LAUNCH_DATE":"2024-12-17","SITE":"AFETR","DECAY_DATE":null,"FILE":"5205383","GP_ID":"323867903","TLE_LINE0":"0 NAVSTAR 83 (USA 440)","TLE_LINE1":"1 62339U 24242A   26139.67433785 -.00000078  00000-0  00000+0 0  9996","TLE_LINE2":"2 62339  54.8610 335.3368 0017277   3.4958 177.0470  2.00570769 10680"},{"CCSDS_OMM_VERS":"3.0","COMMENT":"GENERATED VIA SPACE-TRACK.ORG API","CREATION_DATE":"2026-05-21T03:02:41","ORIGINATOR":"18 SPCS","OBJECT_NAME":"NAVSTAR 83 (USA 440)","OBJECT_ID":"2024-242A","CENTER_NAME":"EARTH","REF_FRAME":"TEME","TIME_SYSTEM":"UTC","MEAN_ELEMENT_THEORY":"SGP4","EPOCH":"2026-05-20T16:08:18.554208","MEAN_MOTION":"2.00570826","ECCENTRICITY":"0.00173014","INCLINATION":"54.8606","RA_OF_ASC_NODE":"335.2961","ARG_OF_PERICENTER":"3.5784","MEAN_ANOMALY":"177.6674","EPHEMERIS_TYPE":"0","CLASSIFICATION_TYPE":"U","NORAD_CAT_ID":"62339","ELEMENT_SET_NO":"999","REV_AT_EPOCH":"1070","BSTAR":"0.00000000000000","MEAN_MOTION_DOT":"-0.00000081","MEAN_MOTION_DDOT":"0.0000000000000","SEMIMAJOR_AXIS":"26559.710","PERIOD":"717.951","APOAPSIS":"20227.527","PERIAPSIS":"20135.623","OBJECT_TYPE":"PAYLOAD","RCS_SIZE":"LARGE","COUNTRY_CODE":"US","LAUNCH_DATE":"2024-12-17","SITE":"AFETR","DECAY_DATE":null,"FILE":"5207306","GP_ID":"324038933","TLE_LINE0":"0 NAVSTAR 83 (USA 440)","TLE_LINE1":"1 62339U 24242A   26140.67243697 -.00000081  00000-0  00000-0 0  9994","TLE_LINE2":"2 62339  54.8606 335.2961 0017301   3.5784 177.6674  2.00570826 10708"},{"CCSDS_OMM_VERS":"3.0","COMMENT":"GENERATED VIA SPACE-TRACK.ORG API","CREATION_DATE":"2026-05-21T21:16:58","ORIGINATOR":"18 SPCS","OBJECT_NAME":"NAVSTAR 83 (USA 440)","OBJECT_ID":"2024-242A","CENTER_NAME":"EARTH","REF_FRAME":"TEME","TIME_SYSTEM":"UTC","MEAN_ELEMENT_THEORY":"SGP4","EPOCH":"2026-05-21T16:05:43.894752","MEAN_MOTION":"2.00570900","ECCENTRICITY":"0.00173340","INCLINATION":"54.8604","RA_OF_ASC_NODE":"335.2554","ARG_OF_PERICENTER":"3.6569","MEAN_ANOMALY":"178.3722","EPHEMERIS_TYPE":"0","CLASSIFICATION_TYPE":"U","NORAD_CAT_ID":"62339","ELEMENT_SET_NO":"999","REV_AT_EPOCH":"1072","BSTAR":"0.00000000000000","MEAN_MOTION_DOT":"-0.00000083","MEAN_MOTION_DDOT":"0.0000000000000","SEMIMAJOR_AXIS":"26559.704","PERIOD":"717.951","APOAPSIS":"20227.607","PERIAPSIS":"20135.530","OBJECT_TYPE":"PAYLOAD","RCS_SIZE":"LARGE","COUNTRY_CODE":"US","LAUNCH_DATE":"2024-12-17","SITE":"AFETR","DECAY_DATE":null,"FILE":"5208146","GP_ID":"324188782","TLE_LINE0":"0 NAVSTAR 83 (USA 440)","TLE_LINE1":"1 62339U 24242A   26141.67064693 -.00000083  00000-0  00000+0 0  9993","TLE_LINE2":"2 62339  54.8604 335.2554 0017334   3.6569 178.3722  2.00570900 10729"},{"CCSDS_OMM_VERS":"3.0","COMMENT":"GENERATED VIA SPACE-TRACK.ORG API","CREATION_DATE":"2026-05-22T03:00:41","ORIGINATOR":"18 SPCS","OBJECT_NAME":"NAVSTAR 83 (USA 440)","OBJECT_ID":"2024-242A","CENTER_NAME":"EARTH","REF_FRAME":"TEME","TIME_SYSTEM":"UTC","MEAN_ELEMENT_THEORY":"SGP4","EPOCH":"2026-05-21T16:05:43.895616","MEAN_MOTION":"2.00570900","ECCENTRICITY":"0.00173337","INCLINATION":"54.8604","RA_OF_ASC_NODE":"335.2555","ARG_OF_PERICENTER":"3.6569","MEAN_ANOMALY":"178.3722","EPHEMERIS_TYPE":"0","CLASSIFICATION_TYPE":"U","NORAD_CAT_ID":"62339","ELEMENT_SET_NO":"999","REV_AT_EPOCH":"1072","BSTAR":"0.00000000000000","MEAN_MOTION_DOT":"-0.00000083","MEAN_MOTION_DDOT":"0.0000000000000","SEMIMAJOR_AXIS":"26559.704","PERIOD":"717.951","APOAPSIS":"20227.606","PERIAPSIS":"20135.531","OBJECT_TYPE":"PAYLOAD","RCS_SIZE":"LARGE","COUNTRY_CODE":"US","LAUNCH_DATE":"2024-12-17","SITE":"AFETR","DECAY_DATE":null,"FILE":"5208707","GP_ID":"324269239","TLE_LINE0":"0 NAVSTAR 83 (USA 440)","TLE_LINE1":"1 62339U 24242A   26141.67064694 -.00000083  00000-0  00000-0 0  9995","TLE_LINE2":"2 62339  54.8604 335.2555 0017334   3.6569 178.3722  2.00570900 10720"},{"CCSDS_OMM_VERS":"3.0","COMMENT":"GENERATED VIA SPACE-TRACK.ORG API","CREATION_DATE":"2026-05-24T00:16:29","ORIGINATOR":"18 SPCS","OBJECT_NAME":"NAVSTAR 83 (USA 440)","OBJECT_ID":"2024-242A","CENTER_NAME":"EARTH","REF_FRAME":"TEME","TIME_SYSTEM":"UTC","MEAN_ELEMENT_THEORY":"SGP4","EPOCH":"2026-05-23T16:00:21.082752","MEAN_MOTION":"2.00571082","ECCENTRICITY":"0.00173740","INCLINATION":"54.8596","RA_OF_ASC_NODE":"335.1744","ARG_OF_PERICENTER":"3.8345","MEAN_ANOMALY":"179.6490","EPHEMERIS_TYPE":"0","CLASSIFICATION_TYPE":"U","NORAD_CAT_ID":"62339","ELEMENT_SET_NO":"999","REV_AT_EPOCH":"1076","BSTAR":"0.00000000000000","MEAN_MOTION_DOT":"-0.00000087","MEAN_MOTION_DDOT":"0.0000000000000","SEMIMAJOR_AXIS":"26559.688","PERIOD":"717.950","APOAPSIS":"20227.697","PERIAPSIS":"20135.408","OBJECT_TYPE":"PAYLOAD","RCS_SIZE":"LARGE","COUNTRY_CODE":"US","LAUNCH_DATE":"2024-12-17","SITE":"AFETR","DECAY_DATE":null,"FILE":"5211500","GP_ID":"324638607","TLE_LINE0":"0 NAVSTAR 83 (USA 440)","TLE_LINE1":"1 62339U 24242A   26143.66691068 -.00000087  00000-0  00000+0 0  9990","TLE_LINE2":"2 62339  54.8596 335.1744 0017374   3.8345 179.6490  2.00571082 10769"},{"CCSDS_OMM_VERS":"3.0","COMMENT":"GENERATED VIA SPACE-TRACK.ORG API","CREATION_DATE":"2026-05-25T04:06:45","ORIGINATOR":"18 SPCS","OBJECT_NAME":"NAVSTAR 83 (USA 440)","OBJECT_ID":"2024-242A","CENTER_NAME":"EARTH","REF_FRAME":"TEME","TIME_SYSTEM":"UTC","MEAN_ELEMENT_THEORY":"SGP4","EPOCH":"2026-05-23T16:00:21.083616","MEAN_MOTION":"2.00571082","ECCENTRICITY":"0.00173736","INCLINATION":"54.8596","RA_OF_ASC_NODE":"335.1744","ARG_OF_PERICENTER":"3.8345","MEAN_ANOMALY":"179.6490","EPHEMERIS_TYPE":"0","CLASSIFICATION_TYPE":"U","NORAD_CAT_ID":"62339","ELEMENT_SET_NO":"999","REV_AT_EPOCH":"1076","BSTAR":"0.00000000000000","MEAN_MOTION_DOT":"-0.00000087","MEAN_MOTION_DDOT":"0.0000000000000","SEMIMAJOR_AXIS":"26559.688","PERIOD":"717.950","APOAPSIS":"20227.696","PERIAPSIS":"20135.409","OBJECT_TYPE":"PAYLOAD","RCS_SIZE":"LARGE","COUNTRY_CODE":"US","LAUNCH_DATE":"2024-12-17","SITE":"AFETR","DECAY_DATE":null,"FILE":"5212715","GP_ID":"324772184","TLE_LINE0":"0 NAVSTAR 83 (USA 440)","TLE_LINE1":"1 62339U 24242A   26143.66691069 -.00000087  00000-0  00000-0 0  9992","TLE_LINE2":"2 62339  54.8596 335.1744 0017374   3.8345 179.6490  2.00571082 10769"},{"CCSDS_OMM_VERS":"3.0","COMMENT":"GENERATED VIA SPACE-TRACK.ORG API","CREATION_DATE":"2026-05-29T17:54:44","ORIGINATOR":"18 SPCS","OBJECT_NAME":"NAVSTAR 83 (USA 440)","OBJECT_ID":"2024-242A","CENTER_NAME":"EARTH","REF_FRAME":"TEME","TIME_SYSTEM":"UTC","MEAN_ELEMENT_THEORY":"SGP4","EPOCH":"2026-05-29T09:32:41.519328","MEAN_MOTION":"2.00571524","ECCENTRICITY":"0.00173458","INCLINATION":"54.8580","RA_OF_ASC_NODE":"334.9425","ARG_OF_PERICENTER":"4.2667","MEAN_ANOMALY":"357.2903","EPHEMERIS_TYPE":"0","CLASSIFICATION_TYPE":"U","NORAD_CAT_ID":"62339","ELEMENT_SET_NO":"999","REV_AT_EPOCH":"1088","BSTAR":"0.00000000000000","MEAN_MOTION_DOT":"-0.00000096","MEAN_MOTION_DDOT":"0.0000000000000","SEMIMAJOR_AXIS":"26559.649","PERIOD":"717.948","APOAPSIS":"20227.584","PERIAPSIS":"20135.444","OBJECT_TYPE":"PAYLOAD","RCS_SIZE":"LARGE","COUNTRY_CODE":"US","LAUNCH_DATE":"2024-12-17","SITE":"AFETR","DECAY_DATE":null,"FILE":"5221432","GP_ID":"325882608","TLE_LINE0":"0 NAVSTAR 83 (USA 440)","TLE_LINE1":"1 62339U 24242A   26149.39770277 -.00000096  00000-0  00000-0 0  9997","TLE_LINE2":"2 62339  54.8580 334.9425 0017346   4.2667 357.2903  2.00571524 10883"},{"CCSDS_OMM_VERS":"3.0","COMMENT":"GENERATED VIA SPACE-TRACK.ORG API","CREATION_DATE":"2026-05-29T15:06:54","ORIGINATOR":"18 SPCS","OBJECT_NAME":"NAVSTAR 83 (USA 440)","OBJECT_ID":"2024-242A","CENTER_NAME":"EARTH","REF_FRAME":"TEME","TIME_SYSTEM":"UTC","MEAN_ELEMENT_THEORY":"SGP4","EPOCH":"2026-05-29T09:32:41.519328","MEAN_MOTION":"2.00571524","ECCENTRICITY":"0.00173460","INCLINATION":"54.8580","RA_OF_ASC_NODE":"334.9425","ARG_OF_PERICENTER":"4.2667","MEAN_ANOMALY":"357.2903","EPHEMERIS_TYPE":"0","CLASSIFICATION_TYPE":"U","NORAD_CAT_ID":"62339","ELEMENT_SET_NO":"999","REV_AT_EPOCH":"1088","BSTAR":"0.00000000000000","MEAN_MOTION_DOT":"-0.00000096","MEAN_MOTION_DDOT":"0.0000000000000","SEMIMAJOR_AXIS":"26559.649","PERIOD":"717.948","APOAPSIS":"20227.584","PERIAPSIS":"20135.443","OBJECT_TYPE":"PAYLOAD","RCS_SIZE":"LARGE","COUNTRY_CODE":"US","LAUNCH_DATE":"2024-12-17","SITE":"AFETR","DECAY_DATE":null,"FILE":"5221257","GP_ID":"325843174","TLE_LINE0":"0 NAVSTAR 83 (USA 440)","TLE_LINE1":"1 62339U 24242A   26149.39770277 -.00000096  00000-0  00000+0 0  9996","TLE_LINE2":"2 62339  54.8580 334.9425 0017346   4.2667 357.2903  2.00571524 10883"}]